{
  "type": "FeatureCollection",
  "features": [
    {
      "type": "Feature",
      "properties": {
        "norad_id": 34350,
        "name": "IRIDIUM 33 DEB",
        "group": "iridium-33-debris",
        "lat": 55.330620123182996,
        "lon": 172.4863108791465,
        "alt_km": 720.2847601565891,
        "timestamp": "2025-12-24T05:51:19.994184+00:00",
        "meta_object_name": "IRIDIUM 33 DEB",
        "meta_object_id": "1997-051ES",
        "meta_epoch": "2025-12-23T18:28:41.895840",
        "meta_mean_motion": 14.45411309,
        "meta_eccentricity": 0.00234827,
        "meta_inclination": 86.3273,
        "meta_ra_of_asc_node": 358.0205,
        "meta_arg_of_pericenter": 101.4247,
        "meta_mean_anomaly": 77.7519,
        "meta_ephemeris_type": 0,
        "meta_classification_type": "U",
        "meta_norad_cat_id": 34350,
        "meta_element_set_no": 999,
        "meta_rev_at_epoch": 88452,
        "meta_bstar": 0.00030295247,
        "meta_mean_motion_dot": 1.089e-05,
        "meta_mean_motion_ddot": 0,
        "tle_line1": "1 34350U 97051ES  25357.76992935  .00001089  00000+0  30295-3 0  9998",
        "tle_line2": "2 34350  86.3273 358.0205 0023482 101.4247  77.7519 14.45411309884522"
      },
      "geometry": {
        "type": "Point",
        "coordinates": [
          172.4863108791465,
          55.330620123182996
        ]
      }
    },
    {
      "type": "Feature",
      "properties": {
        "norad_id": 34366,
        "name": "IRIDIUM 33 DEB",
        "group": "iridium-33-debris",
        "lat": 85.8085881286172,
        "lon": 164.24646543927346,
        "alt_km": 688.6670887385035,
        "timestamp": "2025-12-24T05:51:19.994194+00:00",
        "meta_object_name": "IRIDIUM 33 DEB",
        "meta_object_id": "1997-051FJ",
        "meta_epoch": "2025-12-22T10:47:10.372704",
        "meta_mean_motion": 14.54128755,
        "meta_eccentricity": 0.00230356,
        "meta_inclination": 86.3686,
        "meta_ra_of_asc_node": 45.09,
        "meta_arg_of_pericenter": 109.4758,
        "meta_mean_anomaly": 314.4093,
        "meta_ephemeris_type": 0,
        "meta_classification_type": "U",
        "meta_norad_cat_id": 34366,
        "meta_element_set_no": 999,
        "meta_rev_at_epoch": 88323,
        "meta_bstar": 0.000894432,
        "meta_mean_motion_dot": 3.813e-05,
        "meta_mean_motion_ddot": 0,
        "tle_line1": "1 34366U 97051FJ  25356.44942561  .00003813  00000+0  89443-3 0  9995",
        "tle_line2": "2 34366  86.3686  45.0900 0023035 109.4758 314.4093 14.54128755883236"
      },
      "geometry": {
        "type": "Point",
        "coordinates": [
          164.24646543927346,
          85.8085881286172
        ]
      }
    },
    {
      "type": "Feature",
      "properties": {
        "norad_id": 34375,
        "name": "IRIDIUM 33 DEB",
        "group": "iridium-33-debris",
        "lat": -46.408839603346166,
        "lon": 174.3062762534152,
        "alt_km": 893.4316111379658,
        "timestamp": "2025-12-24T05:51:19.994205+00:00",
        "meta_object_name": "IRIDIUM 33 DEB",
        "meta_object_id": "1997-051FT",
        "meta_epoch": "2025-12-23T23:53:27.636864",
        "meta_mean_motion": 14.18011996,
        "meta_eccentricity": 0.01036955,
        "meta_inclination": 86.4323,
        "meta_ra_of_asc_node": 178.164,
        "meta_arg_of_pericenter": 91.5399,
        "meta_mean_anomaly": 34.9546,
        "meta_ephemeris_type": 0,
        "meta_classification_type": "U",
        "meta_norad_cat_id": 34375,
        "meta_element_set_no": 999,
        "meta_rev_at_epoch": 86871,
        "meta_bstar": 0.0003861182,
        "meta_mean_motion_dot": 8.53e-06,
        "meta_mean_motion_ddot": 0,
        "tle_line1": "1 34375U 97051FT  25357.99545876  .00000853  00000+0  38612-3 0  9997",
        "tle_line2": "2 34375  86.4323 178.1640 0103695  91.5399  34.9546 14.18011996868718"
      },
      "geometry": {
        "type": "Point",
        "coordinates": [
          174.3062762534152,
          -46.408839603346166
        ]
      }
    },
    {
      "type": "Feature",
      "properties": {
        "norad_id": 34376,
        "name": "IRIDIUM 33 DEB",
        "group": "iridium-33-debris",
        "lat": 12.455257713994714,
        "lon": 2.1862405735311303,
        "alt_km": 694.5631184478325,
        "timestamp": "2025-12-24T05:51:19.994215+00:00",
        "meta_object_name": "IRIDIUM 33 DEB",
        "meta_object_id": "1997-051FU",
        "meta_epoch": "2025-12-23T18:18:19.810656",
        "meta_mean_motion": 14.62709985,
        "meta_eccentricity": 0.00283537,
        "meta_inclination": 86.298,
        "meta_ra_of_asc_node": 1.5832,
        "meta_arg_of_pericenter": 130.5019,
        "meta_mean_anomaly": 229.867,
        "meta_ephemeris_type": 0,
        "meta_classification_type": "U",
        "meta_norad_cat_id": 34376,
        "meta_element_set_no": 999,
        "meta_rev_at_epoch": 88168,
        "meta_bstar": 0.0014354429,
        "meta_mean_motion_dot": 7.374e-05,
        "meta_mean_motion_ddot": 0,
        "tle_line1": "1 34376U 97051FU  25357.76272929  .00007374  00000+0  14354-2 0  9990",
        "tle_line2": "2 34376  86.2980   1.5832 0028353 130.5019 229.8670 14.62709985881683"
      },
      "geometry": {
        "type": "Point",
        "coordinates": [
          2.1862405735311303,
          12.455257713994714
        ]
      }
    },
    {
      "type": "Feature",
      "properties": {
        "norad_id": 34486,
        "name": "IRIDIUM 33 DEB",
        "group": "iridium-33-debris",
        "lat": 8.856217219505229,
        "lon": -173.8507598920262,
        "alt_km": 580.6547278690796,
        "timestamp": "2025-12-24T05:51:19.994226+00:00",
        "meta_object_name": "IRIDIUM 33 DEB",
        "meta_object_id": "1997-051GB",
        "meta_epoch": "2025-12-23T12:06:52.771680",
        "meta_mean_motion": 14.96260027,
        "meta_eccentricity": 0.00139643,
        "meta_inclination": 86.3925,
        "meta_ra_of_asc_node": 7.0539,
        "meta_arg_of_pericenter": 81.2813,
        "meta_mean_anomaly": 70.4302,
        "meta_ephemeris_type": 0,
        "meta_classification_type": "U",
        "meta_norad_cat_id": 34486,
        "meta_element_set_no": 999,
        "meta_rev_at_epoch": 89147,
        "meta_bstar": 0.0021946468,
        "meta_mean_motion_dot": 0.00024903,
        "meta_mean_motion_ddot": 0,
        "tle_line1": "1 34486U 97051GB  25357.50477745  .00024903  00000+0  21946-2 0  9999",
        "tle_line2": "2 34486  86.3925   7.0539 0013964  81.2813  70.4302 14.96260027891472"
      },
      "geometry": {
        "type": "Point",
        "coordinates": [
          -173.8507598920262,
          8.856217219505229
        ]
      }
    },
    {
      "type": "Feature",
      "properties": {
        "norad_id": 34487,
        "name": "IRIDIUM 33 DEB",
        "group": "iridium-33-debris",
        "lat": 17.797803754432447,
        "lon": -173.75266899956122,
        "alt_km": 740.0132522492013,
        "timestamp": "2025-12-24T05:51:19.994236+00:00",
        "meta_object_name": "IRIDIUM 33 DEB",
        "meta_object_id": "1997-051GC",
        "meta_epoch": "2025-12-23T11:33:20.683296",
        "meta_mean_motion": 14.43229237,
        "meta_eccentricity": 0.00332431,
        "meta_inclination": 86.3429,
        "meta_ra_of_asc_node": 7.752,
        "meta_arg_of_pericenter": 94.9572,
        "meta_mean_anomaly": 67.6392,
        "meta_ephemeris_type": 0,
        "meta_classification_type": "U",
        "meta_norad_cat_id": 34487,
        "meta_element_set_no": 999,
        "meta_rev_at_epoch": 88403,
        "meta_bstar": 0.00016812921,
        "meta_mean_motion_dot": 5.89e-06,
        "meta_mean_motion_ddot": 0,
        "tle_line1": "1 34487U 97051GC  25357.48148939  .00000589  00000+0  16813-3 0  9999",
        "tle_line2": "2 34487  86.3429   7.7520 0033243  94.9572  67.6392 14.43229237884035"
      },
      "geometry": {
        "type": "Point",
        "coordinates": [
          -173.75266899956122,
          17.797803754432447
        ]
      }
    },
    {
      "type": "Feature",
      "properties": {
        "norad_id": 34488,
        "name": "IRIDIUM 33 DEB",
        "group": "iridium-33-debris",
        "lat": 27.692319515748363,
        "lon": 118.17362181820667,
        "alt_km": 471.3637959984535,
        "timestamp": "2025-12-24T05:51:19.994246+00:00",
        "meta_object_name": "IRIDIUM 33 DEB",
        "meta_object_id": "1997-051GD",
        "meta_epoch": "2025-12-23T07:14:56.478912",
        "meta_mean_motion": 15.32002527,
        "meta_eccentricity": 0.00097213,
        "meta_inclination": 86.3275,
        "meta_ra_of_asc_node": 300.5735,
        "meta_arg_of_pericenter": 36.3388,
        "meta_mean_anomaly": 323.852,
        "meta_ephemeris_type": 0,
        "meta_classification_type": "U",
        "meta_norad_cat_id": 34488,
        "meta_element_set_no": 999,
        "meta_rev_at_epoch": 89401,
        "meta_bstar": 0.0045068376,
        "meta_mean_motion_dot": 0.00141753,
        "meta_mean_motion_ddot": 0,
        "tle_line1": "1 34488U 97051GD  25357.30204258  .00141753  00000+0  45068-2 0  9990",
        "tle_line2": "2 34488  86.3275 300.5735 0009721  36.3388 323.8520 15.32002527894015"
      },
      "geometry": {
        "type": "Point",
        "coordinates": [
          118.17362181820667,
          27.692319515748363
        ]
      }
    }
  ]
}